{
  "type": "FeatureCollection",
  "features": [
    {
      "type": "Feature",
      "properties": {
        "norad_id": 30445,
        "name": "FENGYUN 1C DEB",
        "group": "fengyun-1c-debris",
        "lat": 4.470299237605507,
        "lon": 130.51652686737722,
        "alt_km": 805.4276392115062,
        "timestamp": "2025-12-23T22:42:33.260914+00:00",
        "meta_object_name": "FENGYUN 1C DEB",
        "meta_object_id": "1999-025AFG",
        "meta_epoch": "2025-12-22T19:22:49.211328",
        "meta_mean_motion": 14.4880126,
        "meta_eccentricity": 0.01052882,
        "meta_inclination": 98.8371,
        "meta_ra_of_asc_node": 308.6281,
        "meta_arg_of_pericenter": 348.156,
        "meta_mean_anomaly": 11.7158,
        "meta_ephemeris_type": 0,
        "meta_classification_type": "U",
        "meta_norad_cat_id": 30445,
        "meta_element_set_no": 999,
        "meta_rev_at_epoch": 99330,
        "meta_bstar": 0.00073343934,
        "meta_mean_motion_dot": 2.918e-05,
        "meta_mean_motion_ddot": 0,
        "tle_line1": "1 30445U 99025AFG 25356.80751402  .00002918  00000+0  73344-3 0  9992",
        "tle_line2": "2 30445  98.8371 308.6281 0105288 348.1560  11.7158 14.48801260993304"
      },
      "geometry": {
        "type": "Point",
        "coordinates": [
          130.51652686737722,
          4.470299237605507
        ]
      }
    },
    {
      "type": "Feature",
      "properties": {
        "norad_id": 30446,
        "name": "FENGYUN 1C DEB",
        "group": "fengyun-1c-debris",
        "lat": 25.142220049817578,
        "lon": -95.32044072445022,
        "alt_km": 741.5061084518065,
        "timestamp": "2025-12-23T22:42:33.260924+00:00",
        "meta_object_name": "FENGYUN 1C DEB",
        "meta_object_id": "1999-025AFH",
        "meta_epoch": "2025-12-23T05:22:47.050752",
        "meta_mean_motion": 14.44834413,
        "meta_eccentricity": 0.00341134,
        "meta_inclination": 98.6131,
        "meta_ra_of_asc_node": 79.8686,
        "meta_arg_of_pericenter": 67.019,
        "meta_mean_anomaly": 293.4594,
        "meta_ephemeris_type": 0,
        "meta_classification_type": "U",
        "meta_norad_cat_id": 30446,
        "meta_element_set_no": 999,
        "meta_rev_at_epoch": 98328,
        "meta_bstar": 0.001654295,
        "meta_mean_motion_dot": 5.752e-05,
        "meta_mean_motion_ddot": 0,
        "tle_line1": "1 30446U 99025AFH 25357.22415568  .00005752  00000+0  16543-2 0  9996",
        "tle_line2": "2 30446  98.6131  79.8686 0034113  67.0190 293.4594 14.44834413983288"
      },
      "geometry": {
        "type": "Point",
        "coordinates": [
          -95.32044072445022,
          25.142220049817578
        ]
      }
    },
    {
      "type": "Feature",
      "properties": {
        "norad_id": 30447,
        "name": "FENGYUN 1C DEB",
        "group": "fengyun-1c-debris",
        "lat": 33.50614762324957,
        "lon": -145.65296100960103,
        "alt_km": 667.0527816252088,
        "timestamp": "2025-12-23T22:42:33.260934+00:00",
        "meta_object_name": "FENGYUN 1C DEB",
        "meta_object_id": "1999-025AFJ",
        "meta_epoch": "2025-12-22T13:43:29.186112",
        "meta_mean_motion": 14.5678773,
        "meta_eccentricity": 0.00601618,
        "meta_inclination": 98.9705,
        "meta_ra_of_asc_node": 218.8715,
        "meta_arg_of_pericenter": 1.6286,
        "meta_mean_anomaly": 28.4158,
        "meta_ephemeris_type": 0,
        "meta_classification_type": "U",
        "meta_norad_cat_id": 30447,
        "meta_element_set_no": 999,
        "meta_rev_at_epoch": 98239,
        "meta_bstar": 0.002651413,
        "meta_mean_motion_dot": 0.00012126,
        "meta_mean_motion_ddot": 0,
        "tle_line1": "1 30447U 99025AFJ 25356.57186558  .00012126  00000+0  26514-2 0  9990",
        "tle_line2": "2 30447  98.9705 218.8715 0060161   1.6286  28.4158 14.56787730982394"
      },
      "geometry": {
        "type": "Point",
        "coordinates": [
          -145.65296100960103,
          33.50614762324957
        ]
      }
    },
    {
      "type": "Feature",
      "properties": {
        "norad_id": 30448,
        "name": "FENGYUN 1C DEB",
        "group": "fengyun-1c-debris",
        "lat": -32.23106127746739,
        "lon": 95.42377925409824,
        "alt_km": 768.3403069182041,
        "timestamp": "2025-12-23T22:42:33.260947+00:00",
        "meta_object_name": "FENGYUN 1C DEB",
        "meta_object_id": "1999-025AFK",
        "meta_epoch": "2025-12-23T04:45:49.357152",
        "meta_mean_motion": 14.35231958,
        "meta_eccentricity": 0.00169339,
        "meta_inclination": 98.8303,
        "meta_ra_of_asc_node": 89.0345,
        "meta_arg_of_pericenter": 338.2745,
        "meta_mean_anomaly": 87.9839,
        "meta_ephemeris_type": 0,
        "meta_classification_type": "U",
        "meta_norad_cat_id": 30448,
        "meta_element_set_no": 999,
        "meta_rev_at_epoch": 97488,
        "meta_bstar": 0.0018733467,
        "meta_mean_motion_dot": 5.326e-05,
        "meta_mean_motion_ddot": 0,
        "tle_line1": "1 30448U 99025AFK 25357.19848793  .00005326  00000+0  18733-2 0  9994",
        "tle_line2": "2 30448  98.8303  89.0345 0016933 338.2745  87.9839 14.35231958974886"
      },
      "geometry": {
        "type": "Point",
        "coordinates": [
          95.42377925409824,
          -32.23106127746739
        ]
      }
    },
    {
      "type": "Feature",
      "properties": {
        "norad_id": 30450,
        "name": "FENGYUN 1C DEB",
        "group": "fengyun-1c-debris",
        "lat": 78.85025938923975,
        "lon": -34.37921816514524,
        "alt_km": 678.991238367681,
        "timestamp": "2025-12-23T22:42:33.260962+00:00",
        "meta_object_name": "FENGYUN 1C DEB",
        "meta_object_id": "1999-025AFM",
        "meta_epoch": "2025-12-22T12:31:39.268992",
        "meta_mean_motion": 14.61844935,
        "meta_eccentricity": 0.01895604,
        "meta_inclination": 98.0795,
        "meta_ra_of_asc_node": 10.3421,
        "meta_arg_of_pericenter": 177.4992,
        "meta_mean_anomaly": 336.1868,
        "meta_ephemeris_type": 0,
        "meta_classification_type": "U",
        "meta_norad_cat_id": 30450,
        "meta_element_set_no": 999,
        "meta_rev_at_epoch": 99685,
        "meta_bstar": 0.00051723375,
        "meta_mean_motion_dot": 3.287e-05,
        "meta_mean_motion_ddot": 0,
        "tle_line1": "1 30450U 99025AFM 25356.52198228  .00003287  00000+0  51723-3 0  9995",
        "tle_line2": "2 30450  98.0795  10.3421 0189560 177.4992 336.1868 14.61844935996858"
      },
      "geometry": {
        "type": "Point",
        "coordinates": [
          -34.37921816514524,
          78.85025938923975
        ]
      }
    },
    {
      "type": "Feature",
      "properties": {
        "norad_id": 30452,
        "name": "FENGYUN 1C DEB",
        "group": "fengyun-1c-debris",
        "lat": 26.146479978152705,
        "lon": 133.48723899713653,
        "alt_km": 710.1536312873086,
        "timestamp": "2025-12-23T22:42:33.260972+00:00",
        "meta_object_name": "FENGYUN 1C DEB",
        "meta_object_id": "1999-025AFP",
        "meta_epoch": "2025-12-22T09:08:18.621312",
        "meta_mean_motion": 14.64918809,
        "meta_eccentricity": 0.00495079,
        "meta_inclination": 99.3233,
        "meta_ra_of_asc_node": 136.3406,
        "meta_arg_of_pericenter": 224.376,
        "meta_mean_anomaly": 190.9553,
        "meta_ephemeris_type": 0,
        "meta_classification_type": "U",
        "meta_norad_cat_id": 30452,
        "meta_element_set_no": 999,
        "meta_rev_at_epoch": 98248,
        "meta_bstar": 0.0044649179,
        "meta_mean_motion_dot": 0.00024336,
        "meta_mean_motion_ddot": 0,
        "tle_line1": "1 30452U 99025AFP 25356.38077108  .00024336  00000+0  44649-2 0  9990",
        "tle_line2": "2 30452  99.3233 136.3406 0049507 224.3760 190.9553 14.64918809982480"
      },
      "geometry": {
        "type": "Point",
        "coordinates": [
          133.48723899713653,
          26.146479978152705
        ]
      }
    },
    {
      "type": "Feature",
      "properties": {
        "norad_id": 30453,
        "name": "FENGYUN 1C DEB",
        "group": "fengyun-1c-debris",
        "lat": -76.98313119688103,
        "lon": 111.85268140962624,
        "alt_km": 808.900029212682,
        "timestamp": "2025-12-23T22:42:33.260983+00:00",
        "meta_object_name": "FENGYUN 1C DEB",
        "meta_object_id": "1999-025AFQ",
        "meta_epoch": "2025-12-23T04:40:23.440800",
        "meta_mean_motion": 14.24828318,
        "meta_eccentricity": 0.01161688,
        "meta_inclination": 98.8121,
        "meta_ra_of_asc_node": 68.9531,
        "meta_arg_of_pericenter": 196.2699,
        "meta_mean_anomaly": 189.4637,
        "meta_ephemeris_type": 0,
        "meta_classification_type": "U",
        "meta_norad_cat_id": 30453,
        "meta_element_set_no": 999,
        "meta_rev_at_epoch": 97383,
        "meta_bstar": 0.0014919094,
        "meta_mean_motion_dot": 3.69e-05,
        "meta_mean_motion_ddot": 0,
        "tle_line1": "1 30453U 99025AFQ 25357.19471575  .00003690  00000+0  14919-2 0  9994",
        "tle_line2": "2 30453  98.8121  68.9531 0116168 196.2699 189.4637 14.24828318973832"
      },
      "geometry": {
        "type": "Point",
        "coordinates": [
          111.85268140962624,
          -76.98313119688103
        ]
      }
    }
  ]
}